#aV2012 12 21  0  0  0.00000000     288 DD+AD WGS84 FIT  NGA
## 1719 432000.00000000   300.00000000 56282 0.0000000000000
+   31     1  2  3  4  5  6  7  8  9 10 11 12 13 14 15 16 17
+         18 19 20 21 22 23 24 25 26 28 29 30 31 32  0  0  0
+          0  0  0  0  0  0  0  0  0  0  0  0  0  0  0  0  0
+          0  0  0  0  0  0  0  0  0  0  0  0  0  0  0  0  0
+          0  0  0  0  0  0  0  0  0  0  0  0  0  0  0  0  0
++         2  2  2  2  2  2  2  2  2  2  2  2  2  2  2  2  2
++         2  2  2  2  2  2  2  2  2  2  2  2  2  2  2  0  0
++         0  0  0  0  0  0  0  0  0  0  0  0  0  0  0  0  0
++         0  0  0  0  0  0  0  0  0  0  0  0  0  0  0  0  0
++         0  0  0  0  0  0  0  0  0  0  0  0  0  0  0  0  0
%c cc cc ccc ccc cccc cccc cccc cccc ccccc ccccc ccccc ccccc
%c cc cc ccc ccc cccc cccc cccc cccc ccccc ccccc ccccc ccccc
%f  0.0000000  0.000000000  0.00000000000  0.000000000000000
%f  0.0000000  0.000000000  0.00000000000  0.000000000000000
%i    0    0    0    0      0      0      0      0         0
%i    0    0    0    0      0      0      0      0         0
/*      NGA, ST. LOUIS,MO.                                  
/*   EPHEMERIS COMPUTED FROM  1 DAYS OF DATA
/*   EPOCHA SMOOTHER  
/* CCCCCCCCCCCCCCCCCCCCCCCCCCCCCCCCCCCCCCCCCCCCCCCCCCCCCCCCC
*  2012 12 21 13 30  0.00000000                                                 
P  1  20027.015542   9752.621624  14489.609506    288.735595                    
V  1   9390.734786  15981.996685 -23634.823816      0.021137                    
P  2 -13753.829894 -22681.257109   4247.251893    412.213460                    
V  2   5526.613617   2196.173222  30308.965310      0.010157                    
P  3  13665.723756  11758.963179 -20073.913761    144.554864                    
V  3 -23326.890454   7390.924457 -11614.618133      0.050244                    
P  4  -1331.186449 -20993.233565  15762.183794     81.676070                    
V  4  14588.622348  14937.277256  21052.805152      0.111332                    
P  5  -6863.134464 -17734.484685 -18516.323036   -374.094707                    
V  5  10775.491529 -20991.016971  16279.944341     -0.022141                    
P  6   7060.113728  14388.346507 -21118.526943    416.691508                    
V  6 -26562.902030   5285.195323  -4924.262623     -0.131815                    
P  7  14546.676313  -4910.327266 -21662.996222    159.651613                    
V  7  15893.435695  22473.835553   5290.793356      0.044471                    
P  8   6316.614717 -15263.553553 -20536.643068      3.604523                    
V  8  14305.732402  22191.679886 -12601.333024      0.001600                    
P  9 -18461.289426 -17970.273025   5759.345146    208.187827                    
V  9  -3146.511242  -7680.603191 -31184.484340      0.026458                    
P 10   7491.935923 -24869.751344  -4639.853649    -63.073868                    
V 10   5573.780275  -3667.017217  30910.943382     -0.015241                    
P 11  23248.387632  11706.974458   5555.095521   -335.495105                    
V 11   3291.682923   8319.730384 -28781.177193     -0.039254                    
P 12 -15252.937632  -1425.001738  21652.532975    108.058358                    
V 12  11072.487598 -25182.197689   6326.420822      0.020445                    
P 13  25406.189848  -4861.224289  -6415.560563    158.507928                    
V 13   7966.806664   1705.215977  30801.379938     -0.028469                    
P 14 -12070.272225  13749.696924  19397.490283    218.567262                    
V 14 -24244.958664    106.622706 -15453.231733      0.005186                    
P 15 -22978.209224  -5654.685739 -12319.301006   -102.834680                    
V 15  15024.725676  -4827.314546 -25592.874948     -0.010565                    
P 16   5149.611156  17985.575379 -18723.443008   -251.049606                    
V 16 -11541.305171  20883.960246  17205.306888     -0.003949                    
P 17  10388.847515 -14582.611343  19733.137782     67.298396                    
V 17  24720.846914   -767.378246 -13958.791278     -0.036185                    
P 18 -16067.026642  18126.225230 -10100.353273    230.477949                    
V 18   1939.553407 -13932.329349 -27422.849389      0.018670                    
P 19  20884.128362   9166.229339 -14020.005970   -332.886284                    
V 19 -17451.773413   2361.169747 -24188.524192     -0.033515                    
P 20  16548.020226   -372.655592  20586.989173     77.206942                    
V 20  -8368.512612  25344.289407   7200.204066      0.012969                    
P 21 -12712.626568   9055.137310 -20968.878536   -269.705005                    
V 21 -16909.555018 -22290.946167     62.588131     -0.023373                    
P 22  -9523.838329  24682.833412   1494.484145    153.839406                    
V 22  -4359.260114    -44.020920 -30969.072075      0.009584                    
P 23  26229.760189    929.859869   5307.767194    131.852032                    
V 23  -6290.718167   3187.606943  30496.170536     -0.038003                    
P 24 -20101.802421 -12890.235548  11650.711177      1.970114                    
V 24  -7047.435639 -13220.916974 -26774.603471     -0.006537                    
P 25 -17122.549135  11722.963545  16497.646389     57.784502                    
V 25   6547.097783 -20048.919867  21067.958808      0.023045                    
P 26 -12511.988228 -13118.774797 -20161.227949   -167.039058                    
V 26  24040.111611  -1356.711981 -14149.889785      0.135627                    
P 28  12382.844483 -23296.499387  -1235.930836    216.052796                    
V 28   1110.054717   3084.191183 -32301.537596      0.036023                    
P 29 -25599.504967   5144.133932  -4703.062052    389.743595                    
V 29  -6219.338770  -2212.517085  31124.704633      0.039055                    
P 30   -378.610030  24722.481453 -10078.831432   -277.370478                    
V 30  -5923.648982  11016.172075  28212.429045      0.118485                    
P 31   4785.526768  22298.461522  13580.424645    293.450207                    
V 31 -11400.935544 -12734.110440  25537.034233      0.020086                    
P 32  12059.196423  10154.501776  21575.882665   -518.913431                    
V 32 -12848.700458  23763.025213  -3525.179556     -0.034144                    
EOF
